{
"type": "FeatureCollection",
"name": "resistanceattack",
"features": [
{ "type": "Feature", "properties": { "strength": 200 }, "geometry": { "type": "Point", "coordinates": [ 120.856984, 37.656544 ] } },
{ "type": "Feature", "properties": { "strength": 300 }, "geometry": { "type": "Point", "coordinates": [ 120.900605, 36.687635 ] } },
{ "type": "Feature", "properties": { "strength": 1000 }, "geometry": { "type": "Point", "coordinates": [ 120.950026, 36.664734 ] } },
{ "type": "Feature", "properties": { "strength": 400 }, "geometry": { "type": "Point", "coordinates": [ 119.007885, 36.936123 ] } },
{ "type": "Feature", "properties": { "strength": 300 }, "geometry": { "type": "Point", "coordinates": [ 118.872801, 36.995792 ] } },
{ "type": "Feature", "properties": { "strength": 300 }, "geometry": { "type": "Point", "coordinates": [ 117.831926, 37.053542 ] } },
{ "type": "Feature", "properties": { "strength": 200 }, "geometry": { "type": "Point", "coordinates": [ 117.48482, 36.834627 ] } },
{ "type": "Feature", "properties": { "strength": 20 }, "geometry": { "type": "Point", "coordinates": [ 117.139971, 37.649459 ] } },
{ "type": "Feature", "properties": { "strength": 100 }, "geometry": { "type": "Point", "coordinates": [ 117.201473, 37.805813 ] } },
{ "type": "Feature", "properties": { "strength": 20 }, "geometry": { "type": "Point", "coordinates": [ 117.306904, 37.710302 ] } },
{ "type": "Feature", "properties": { "strength": 60 }, "geometry": { "type": "Point", "coordinates": [ 116.689518, 38.330117 ] } },
{ "type": "Feature", "properties": { "strength": 200 }, "geometry": { "type": "Point", "coordinates": [ 116.228255, 38.769871 ] } },
{ "type": "Feature", "properties": { "strength": 100 }, "geometry": { "type": "Point", "coordinates": [ 116.548943, 39.217142 ] } },
{ "type": "Feature", "properties": { "strength": 30 }, "geometry": { "type": "Point", "coordinates": [ 118.039932, 39.447787 ] } },
{ "type": "Feature", "properties": { "strength": 300 }, "geometry": { "type": "Point", "coordinates": [ 118.589055, 40.159873 ] } },
{ "type": "Feature", "properties": { "strength": 30 }, "geometry": { "type": "Point", "coordinates": [ 116.919721, 40.518156 ] } },
{ "type": "Feature", "properties": { "strength": 20 }, "geometry": { "type": "Point", "coordinates": [ 117.10251, 40.585546 ] } },
{ "type": "Feature", "properties": { "strength": 50 }, "geometry": { "type": "Point", "coordinates": [ 117.095921, 40.550507 ] } },
{ "type": "Feature", "properties": { "strength": 300 }, "geometry": { "type": "Point", "coordinates": [ 117.082742, 40.503759 ] } },
{ "type": "Feature", "properties": { "strength": 10 }, "geometry": { "type": "Point", "coordinates": [ 117.089331, 40.370016 ] } },
{ "type": "Feature", "properties": { "strength": 20 }, "geometry": { "type": "Point", "coordinates": [ 115.227178, 41.586711 ] } },
{ "type": "Feature", "properties": { "strength": 100 }, "geometry": { "type": "Point", "coordinates": [ 113.878532, 41.323317 ] } },
{ "type": "Feature", "properties": { "strength": 150 }, "geometry": { "type": "Point", "coordinates": [ 113.65449, 40.995887 ] } },
{ "type": "Feature", "properties": { "strength": 60 }, "geometry": { "type": "Point", "coordinates": [ 113.737957, 40.95277 ] } },
{ "type": "Feature", "properties": { "strength": 50 }, "geometry": { "type": "Point", "coordinates": [ 111.211992, 40.736761 ] } },
{ "type": "Feature", "properties": { "strength": 75 }, "geometry": { "type": "Point", "coordinates": [ 110.860553, 41.12507 ] } },
{ "type": "Feature", "properties": { "strength": 31 }, "geometry": { "type": "Point", "coordinates": [ 109.815023, 41.21766 ] } },
{ "type": "Feature", "properties": { "strength": 33 }, "geometry": { "type": "Point", "coordinates": [ 110.816623, 40.68015 ] } },
{ "type": "Feature", "properties": { "strength": 10 }, "geometry": { "type": "Point", "coordinates": [ 110.43004, 40.603482 ] } },
{ "type": "Feature", "properties": { "strength": 13 }, "geometry": { "type": "Point", "coordinates": [ 110.087388, 40.66349 ] } },
{ "type": "Feature", "properties": { "strength": 50 }, "geometry": { "type": "Point", "coordinates": [ 110.377325, 40.393028 ] } },
{ "type": "Feature", "properties": { "strength": 21 }, "geometry": { "type": "Point", "coordinates": [ 113.054162, 40.281074 ] } },
{ "type": "Feature", "properties": { "strength": 15 }, "geometry": { "type": "Point", "coordinates": [ 112.7622, 39.080145 ] } },
{ "type": "Feature", "properties": { "strength": 10 }, "geometry": { "type": "Point", "coordinates": [ 112.836881, 38.945316 ] } },
{ "type": "Feature", "properties": { "strength": 13 }, "geometry": { "type": "Point", "coordinates": [ 112.551337, 38.781129 ] } },
{ "type": "Feature", "properties": { "strength": 10 }, "geometry": { "type": "Point", "coordinates": [ 112.760003, 38.8205 ] } },
{ "type": "Feature", "properties": { "strength": 40 }, "geometry": { "type": "Point", "coordinates": [ 113.366235, 38.8359 ] } },
{ "type": "Feature", "properties": { "strength": 40 }, "geometry": { "type": "Point", "coordinates": [ 113.524383, 38.917978 ] } },
{ "type": "Feature", "properties": { "strength": 50 }, "geometry": { "type": "Point", "coordinates": [ 113.283137, 38.564246 ] } },
{ "type": "Feature", "properties": { "strength": 5 }, "geometry": { "type": "Point", "coordinates": [ 112.239804, 38.684367 ] } },
{ "type": "Feature", "properties": { "strength": 400 }, "geometry": { "type": "Point", "coordinates": [ 111.833453, 38.476602 ] } },
{ "type": "Feature", "properties": { "strength": 400 }, "geometry": { "type": "Point", "coordinates": [ 112.002583, 37.77509 ] } },
{ "type": "Feature", "properties": { "strength": 20 }, "geometry": { "type": "Point", "coordinates": [ 112.824071, 37.601271 ] } },
{ "type": "Feature", "properties": { "strength": 40 }, "geometry": { "type": "Point", "coordinates": [ 112.9932, 37.977941 ] } },
{ "type": "Feature", "properties": { "strength": 150 }, "geometry": { "type": "Point", "coordinates": [ 111.728021, 37.372952 ] } },
{ "type": "Feature", "properties": { "strength": 200 }, "geometry": { "type": "Point", "coordinates": [ 112.766962, 37.540338 ] } },
{ "type": "Feature", "properties": { "strength": 50 }, "geometry": { "type": "Point", "coordinates": [ 112.665923, 37.447974 ] } },
{ "type": "Feature", "properties": { "strength": 50 }, "geometry": { "type": "Point", "coordinates": [ 113.863011, 37.545563 ] } },
{ "type": "Feature", "properties": { "strength": 150 }, "geometry": { "type": "Point", "coordinates": [ 112.556099, 37.184196 ] } },
{ "type": "Feature", "properties": { "strength": 500 }, "geometry": { "type": "Point", "coordinates": [ 112.604421, 37.101904 ] } },
{ "type": "Feature", "properties": { "strength": 200 }, "geometry": { "type": "Point", "coordinates": [ 112.657137, 36.94583 ] } },
{ "type": "Feature", "properties": { "strength": 60 }, "geometry": { "type": "Point", "coordinates": [ 112.696674, 36.836914 ] } },
{ "type": "Feature", "properties": { "strength": 200 }, "geometry": { "type": "Point", "coordinates": [ 112.755979, 36.465088 ] } },
{ "type": "Feature", "properties": { "strength": 250 }, "geometry": { "type": "Point", "coordinates": [ 112.909734, 36.141153 ] } },
{ "type": "Feature", "properties": { "strength": 60 }, "geometry": { "type": "Point", "coordinates": [ 112.799909, 36.107443 ] } },
{ "type": "Feature", "properties": { "strength": 40 }, "geometry": { "type": "Point", "coordinates": [ 112.850428, 35.919113 ] } },
{ "type": "Feature", "properties": { "strength": 400 }, "geometry": { "type": "Point", "coordinates": [ 113.16233, 36.006227 ] } },
{ "type": "Feature", "properties": { "strength": 450 }, "geometry": { "type": "Point", "coordinates": [ 113.171116, 36.096795 ] } },
{ "type": "Feature", "properties": { "strength": 50 }, "geometry": { "type": "Point", "coordinates": [ 113.151348, 36.180167 ] } },
{ "type": "Feature", "properties": { "strength": 300 }, "geometry": { "type": "Point", "coordinates": [ 113.122793, 36.261679 ] } },
{ "type": "Feature", "properties": { "strength": 70 }, "geometry": { "type": "Point", "coordinates": [ 113.096436, 36.350183 ] } },
{ "type": "Feature", "properties": { "strength": 500 }, "geometry": { "type": "Point", "coordinates": [ 113.223832, 36.339568 ] } },
{ "type": "Feature", "properties": { "strength": 30 }, "geometry": { "type": "Point", "coordinates": [ 113.072274, 36.43682 ] } },
{ "type": "Feature", "properties": { "strength": 300 }, "geometry": { "type": "Point", "coordinates": [ 114.027748, 36.442121 ] } },
{ "type": "Feature", "properties": { "strength": 40 }, "geometry": { "type": "Point", "coordinates": [ 112.624018, 35.024263 ] } },
{ "type": "Feature", "properties": { "strength": 300 }, "geometry": { "type": "Point", "coordinates": [ 113.063317, 35.020666 ] } },
{ "type": "Feature", "properties": { "strength": 19 }, "geometry": { "type": "Point", "coordinates": [ 113.001815, 34.959483 ] } },
{ "type": "Feature", "properties": { "strength": 150 }, "geometry": { "type": "Point", "coordinates": [ 110.880004, 35.247001 ] } },
{ "type": "Feature", "properties": { "strength": 200 }, "geometry": { "type": "Point", "coordinates": [ 115.163163, 35.947118 ] } },
{ "type": "Feature", "properties": { "strength": 300 }, "geometry": { "type": "Point", "coordinates": [ 115.461886, 35.647818 ] } },
{ "type": "Feature", "properties": { "strength": 300 }, "geometry": { "type": "Point", "coordinates": [ 116.235051, 36.177944 ] } },
{ "type": "Feature", "properties": { "strength": 300 }, "geometry": { "type": "Point", "coordinates": [ 115.936328, 36.351503 ] } },
{ "type": "Feature", "properties": { "strength": 300 }, "geometry": { "type": "Point", "coordinates": [ 116.085689, 36.408092 ] } },
{ "type": "Feature", "properties": { "strength": 300 }, "geometry": { "type": "Point", "coordinates": [ 117.416763, 34.966684 ] } },
{ "type": "Feature", "properties": { "strength": 150 }, "geometry": { "type": "Point", "coordinates": [ 116.472272, 34.999077 ] } },
{ "type": "Feature", "properties": { "strength": 300 }, "geometry": { "type": "Point", "coordinates": [ 116.063724, 34.345152 ] } },
{ "type": "Feature", "properties": { "strength": 50 }, "geometry": { "type": "Point", "coordinates": [ 120.131627, 37.729496 ] } },
{ "type": "Feature", "properties": { "strength": 10 }, "geometry": { "type": "Point", "coordinates": [ 117.089331, 40.370016 ] } },
{ "type": "Feature", "properties": { "strength": 200 }, "geometry": { "type": "Point", "coordinates": [ 115.286316, 39.297072 ] } },
{ "type": "Feature", "properties": { "strength": 300 }, "geometry": { "type": "Point", "coordinates": [ 115.239521, 39.285677 ] } },
{ "type": "Feature", "properties": { "strength": 150 }, "geometry": { "type": "Point", "coordinates": [ 115.237324, 39.249966 ] } },
{ "type": "Feature", "properties": { "strength": 400 }, "geometry": { "type": "Point", "coordinates": [ 115.197787, 39.100123 ] } },
{ "type": "Feature", "properties": { "strength": 1000 }, "geometry": { "type": "Point", "coordinates": [ 114.749703, 38.838841 ] } },
{ "type": "Feature", "properties": { "strength": 100 }, "geometry": { "type": "Point", "coordinates": [ 114.800222, 39.453783 ] } },
{ "type": "Feature", "properties": { "strength": 200 }, "geometry": { "type": "Point", "coordinates": [ 114.732131, 39.719544 ] } },
{ "type": "Feature", "properties": { "strength": 5 }, "geometry": { "type": "Point", "coordinates": [ 112.23886, 38.683875 ] } },
{ "type": "Feature", "properties": { "strength": 400 }, "geometry": { "type": "Point", "coordinates": [ 111.708055, 36.461555 ] } },
{ "type": "Feature", "properties": { "strength": 300 }, "geometry": { "type": "Point", "coordinates": [ 111.716841, 36.390861 ] } },
{ "type": "Feature", "properties": { "strength": 50 }, "geometry": { "type": "Point", "coordinates": [ 113.687523, 35.582216 ] } },
{ "type": "Feature", "properties": { "strength": 300 }, "geometry": { "type": "Point", "coordinates": [ 114.999902, 36.678655 ] } },
{ "type": "Feature", "properties": { "strength": 150 }, "geometry": { "type": "Point", "coordinates": [ 114.792333, 36.772842 ] } },
{ "type": "Feature", "properties": { "strength": 1500 }, "geometry": { "type": "Point", "coordinates": [ 115.434807, 36.771083 ] } },
{ "type": "Feature", "properties": { "strength": 1500 }, "geometry": { "type": "Point", "coordinates": [ 115.454357, 36.802341 ] } },
{ "type": "Feature", "properties": { "strength": 1500 }, "geometry": { "type": "Point", "coordinates": [ 115.49609, 36.818168 ] } },
{ "type": "Feature", "properties": { "strength": 1500 }, "geometry": { "type": "Point", "coordinates": [ 115.531234, 36.828718 ] } },
{ "type": "Feature", "properties": { "strength": 1500 }, "geometry": { "type": "Point", "coordinates": [ 115.561985, 36.858601 ] } },
{ "type": "Feature", "properties": { "strength": 70 }, "geometry": { "type": "Point", "coordinates": [ 114.823963, 37.104248 ] } },
{ "type": "Feature", "properties": { "strength": 10 }, "geometry": { "type": "Point", "coordinates": [ 114.832749, 36.696744 ] } },
{ "type": "Feature", "properties": { "strength": 200 }, "geometry": { "type": "Point", "coordinates": [ 115.660827, 37.356085 ] } },
{ "type": "Feature", "properties": { "strength": 200 }, "geometry": { "type": "Point", "coordinates": [ 114.935985, 37.54441 ] } },
{ "type": "Feature", "properties": { "strength": 30 }, "geometry": { "type": "Point", "coordinates": [ 114.973325, 37.667958 ] } },
{ "type": "Feature", "properties": { "strength": 300 }, "geometry": { "type": "Point", "coordinates": [ 115.252279, 37.474715 ] } },
{ "type": "Feature", "properties": { "strength": 400 }, "geometry": { "type": "Point", "coordinates": [ 115.695971, 37.575752 ] } },
{ "type": "Feature", "properties": { "strength": 300 }, "geometry": { "type": "Point", "coordinates": [ 115.900244, 37.499116 ] } },
{ "type": "Feature", "properties": { "strength": 100 }, "geometry": { "type": "Point", "coordinates": [ 115.511465, 37.431123 ] } },
{ "type": "Feature", "properties": { "strength": 100 }, "geometry": { "type": "Point", "coordinates": [ 116.04082, 37.506086 ] } },
{ "type": "Feature", "properties": { "strength": 60 }, "geometry": { "type": "Point", "coordinates": [ 115.892351, 37.750316 ] } },
{ "type": "Feature", "properties": { "strength": 300 }, "geometry": { "type": "Point", "coordinates": [ 112.80072, 35.580287 ] } },
{ "type": "Feature", "properties": { "strength": 100 }, "geometry": { "type": "Point", "coordinates": [ 112.726039, 35.682048 ] } },
{ "type": "Feature", "properties": { "strength": 50 }, "geometry": { "type": "Point", "coordinates": [ 112.76338, 35.62672 ] } },
{ "type": "Feature", "properties": { "strength": 10 }, "geometry": { "type": "Point", "coordinates": [ 112.745808, 35.245533 ] } },
{ "type": "Feature", "properties": { "strength": 1500 }, "geometry": { "type": "Point", "coordinates": [ 118.739871, 37.228481 ] } },
{ "type": "Feature", "properties": { "strength": 100 }, "geometry": { "type": "Point", "coordinates": [ 118.656404, 37.214489 ] } },
{ "type": "Feature", "properties": { "strength": 100 }, "geometry": { "type": "Point", "coordinates": [ 118.432362, 37.371756 ] } },
{ "type": "Feature", "properties": { "strength": 200 }, "geometry": { "type": "Point", "coordinates": [ 117.41319, 39.920509 ] } },
{ "type": "Feature", "properties": { "strength": 100 }, "geometry": { "type": "Point", "coordinates": [ 115.469809, 39.281121 ] } }
]
}
