{
"type": "FeatureCollection",
"name": "kwantungleasedterritory1935",
"features": [
{ "type": "Feature", "properties": { }, "geometry": { "type": "Polygon", "coordinates": [ [ [ 121.92347, 39.40292 ], [ 121.91548, 39.40813 ], [ 121.92237, 39.41523 ], [ 121.93124, 39.41718 ], [ 121.94296, 39.39936 ], [ 121.91505, 39.39541 ], [ 121.86549, 39.37055 ], [ 121.83749, 39.36465 ], [ 121.79127, 39.37132 ], [ 121.7798, 39.37149 ], [ 121.76515, 39.36538 ], [ 121.75351, 39.35521 ], [ 121.73129, 39.33047 ], [ 121.73829, 39.31965 ], [ 121.73609, 39.31175 ], [ 121.71778, 39.29694 ], [ 121.68019, 39.27521 ], [ 121.65846, 39.26679 ], [ 121.64698, 39.26488 ], [ 121.64194, 39.27216 ], [ 121.63697, 39.27265 ], [ 121.61198, 39.27498 ], [ 121.58994, 39.26405 ], [ 121.60409, 39.25295 ], [ 121.63307, 39.23615 ], [ 121.62631, 39.22451 ], [ 121.60165, 39.22126 ], [ 121.60336, 39.2165 ], [ 121.60597, 39.20539 ], [ 121.60792, 39.20075 ], [ 121.59262, 39.19221 ], [ 121.6067, 39.18081 ], [ 121.62989, 39.17324 ], [ 121.64194, 39.17621 ], [ 121.64918, 39.15815 ], [ 121.681, 39.13642 ], [ 121.68979, 39.11815 ], [ 121.67408, 39.08804 ], [ 121.63233, 39.06948 ], [ 121.54648, 39.04926 ], [ 121.48634, 39.0196 ], [ 121.4673, 39.01512 ], [ 121.4415, 39.0139 ], [ 121.42807, 39.01472 ], [ 121.4192, 39.01854 ], [ 121.40854, 39.03286 ], [ 121.40333, 39.03828 ], [ 121.39552, 39.04247 ], [ 121.37485, 39.04418 ], [ 121.35231, 39.03807 ], [ 121.33424, 39.0266 ], [ 121.32675, 39.01203 ], [ 121.32887, 39.00141 ], [ 121.33815, 38.98526 ], [ 121.34034, 38.97761 ], [ 121.33432, 38.96857 ], [ 121.32032, 38.9665 ], [ 121.29184, 38.96735 ], [ 121.25685, 38.94965 ], [ 121.23439, 38.94562 ], [ 121.21949, 38.9405 ], [ 121.2107, 38.94009 ], [ 121.202, 38.94286 ], [ 121.18881, 38.9523 ], [ 121.17954, 38.95433 ], [ 121.12875, 38.94733 ], [ 121.11793, 38.94343 ], [ 121.0962, 38.9206 ], [ 121.08619, 38.90571 ], [ 121.09042, 38.89907 ], [ 121.14853, 38.89907 ], [ 121.15235, 38.8863 ], [ 121.14015, 38.87425 ], [ 121.11451, 38.85814 ], [ 121.11134, 38.84028 ], [ 121.11793, 38.82819 ], [ 121.12778, 38.81892 ], [ 121.13486, 38.80976 ], [ 121.13925, 38.7895 ], [ 121.13404, 38.78221 ], [ 121.12412, 38.77839 ], [ 121.11451, 38.76813 ], [ 121.13242, 38.75873 ], [ 121.14137, 38.74274 ], [ 121.15309, 38.72761 ], [ 121.17954, 38.72093 ], [ 121.1985, 38.72785 ], [ 121.24472, 38.77558 ], [ 121.2256, 38.77631 ], [ 121.21754, 38.77558 ], [ 121.23666, 38.79849 ], [ 121.26075, 38.79511 ], [ 121.28761, 38.78807 ], [ 121.34474, 38.81464 ], [ 121.38014, 38.8166 ], [ 121.48496, 38.80988 ], [ 121.49887, 38.81464 ], [ 121.50489, 38.82648 ], [ 121.51222, 38.82697 ], [ 121.55274, 38.85814 ], [ 121.58107, 38.86298 ], [ 121.6548, 38.85786 ], [ 121.67612, 38.87116 ], [ 121.6963, 38.86294 ], [ 121.70484, 38.87311 ], [ 121.70362, 38.89191 ], [ 121.69361, 38.90961 ], [ 121.67677, 38.92154 ], [ 121.65919, 38.92626 ], [ 121.61817, 38.92642 ], [ 121.59254, 38.93598 ], [ 121.58741, 38.94009 ], [ 121.59213, 38.94868 ], [ 121.60434, 38.95197 ], [ 121.62892, 38.95433 ], [ 121.6478, 38.95938 ], [ 121.6526, 38.96345 ], [ 121.65634, 38.97419 ], [ 121.65781, 38.98387 ], [ 121.65602, 38.99063 ], [ 121.64926, 38.99445 ], [ 121.63575, 38.99531 ], [ 121.67091, 39.00772 ], [ 121.68019, 39.00898 ], [ 121.71046, 39.00674 ], [ 121.73878, 39.00153 ], [ 121.73878, 39.00898 ], [ 121.72006, 39.01952 ], [ 121.7247, 39.03018 ], [ 121.74488, 39.03351 ], [ 121.77247, 39.02196 ], [ 121.78712, 39.0069 ], [ 121.81153, 38.97285 ], [ 121.84791, 38.94746 ], [ 121.85987, 38.94465 ], [ 121.87135, 38.95063 ], [ 121.88754, 38.96239 ], [ 121.89479, 38.97077 ], [ 121.89527, 38.98102 ], [ 121.88014, 38.99702 ], [ 121.83798, 39.01508 ], [ 121.82691, 39.03628 ], [ 121.85597, 39.03376 ], [ 121.87941, 39.02741 ], [ 121.92319, 39.00898 ], [ 121.92026, 39.02094 ], [ 121.91293, 39.03071 ], [ 121.90195, 39.03803 ], [ 121.88844, 39.04247 ], [ 121.90431, 39.04938 ], [ 121.91725, 39.04633 ], [ 121.92945, 39.03986 ], [ 121.94296, 39.03628 ], [ 121.95932, 39.04047 ], [ 121.97128, 39.04963 ], [ 121.98048, 39.05878 ], [ 121.98805, 39.06293 ], [ 122.04233, 39.05972 ], [ 122.05128, 39.06712 ], [ 122.03932, 39.09089 ], [ 122.04786, 39.09919 ], [ 122.05567, 39.10139 ], [ 122.06398, 39.10175 ], [ 122.07333, 39.10456 ], [ 122.12745, 39.14199 ], [ 122.14267, 39.14631 ], [ 122.16269, 39.14614 ], [ 122.14991, 39.15445 ], [ 122.13583, 39.15815 ], [ 122.1045, 39.15913 ], [ 122.10401, 39.1638 ], [ 122.11061, 39.17499 ], [ 122.11671, 39.18867 ], [ 122.115, 39.20075 ], [ 122.19858, 39.25121 ], [ 122.24024, 39.28563 ], [ 122.24537, 39.31061 ], [ 122.24952, 39.31656 ], [ 122.25074, 39.31904 ], [ 122.25148, 39.32368 ], [ 122.26743, 39.31802 ], [ 122.27711, 39.32852 ], [ 122.2837, 39.34341 ], [ 122.29005, 39.35098 ], [ 122.30356, 39.35415 ], [ 122.31886, 39.36201 ], [ 122.33326, 39.37206 ], [ 122.34474, 39.38203 ], [ 122.35597, 39.38788 ], [ 122.38331, 39.39566 ], [ 122.39633, 39.41104 ], [ 122.41383, 39.41364 ], [ 122.44703, 39.41242 ], [ 122.46982, 39.41669 ], [ 122.49562, 39.42719 ], [ 122.54005, 39.45401 ], [ 122.54648, 39.45661 ], [ 122.55112, 39.45596 ], [ 122.55543, 39.456 ], [ 122.56007, 39.46076 ], [ 122.56105, 39.46796 ], [ 122.55722, 39.47329 ], [ 122.55323, 39.47753 ], [ 122.55323, 39.48135 ], [ 122.55956, 39.48521 ], [ 122.56375, 39.48042 ], [ 122.57208, 39.46486 ], [ 122.56375, 39.48042 ], [ 122.55956, 39.48521 ], [ 122.53293, 39.5156 ], [ 122.46053, 39.52913 ], [ 122.39472, 39.52575 ], [ 122.32013, 39.5156 ], [ 122.21921, 39.50713 ], [ 122.14023, 39.50713 ], [ 122.10074, 39.52067 ], [ 122.07442, 39.54774 ], [ 122.05906, 39.5562 ], [ 122.03932, 39.53929 ], [ 122.02615, 39.5139 ], [ 121.96692, 39.50883 ], [ 121.95814, 39.47666 ], [ 121.92207, 39.44236 ], [ 121.92042, 39.43292 ], [ 121.90847, 39.44098 ], [ 121.87959, 39.43153 ], [ 121.92347, 39.40292 ] ] ] } },
{ "type": "Feature", "properties": { }, "geometry": { "type": "Polygon", "coordinates": [ [ [ 122.4026, 39.21381 ], [ 122.38258, 39.20832 ], [ 122.35483, 39.19562 ], [ 122.33058, 39.18012 ], [ 122.3213, 39.16596 ], [ 122.33399, 39.14631 ], [ 122.35524, 39.15156 ], [ 122.37631, 39.16059 ], [ 122.38893, 39.15233 ], [ 122.4026, 39.15913 ], [ 122.39747, 39.16584 ], [ 122.38893, 39.18708 ], [ 122.3899, 39.19355 ], [ 122.39291, 39.2038 ], [ 122.4026, 39.21381 ] ] ] } },
{ "type": "Feature", "properties": { }, "geometry": { "type": "Polygon", "coordinates": [ [ [ 122.50506, 39.29694 ], [ 122.53346, 39.27167 ], [ 122.58619, 39.258 ], [ 122.64308, 39.25507 ], [ 122.68442, 39.26219 ], [ 122.66326, 39.2722 ], [ 122.64389, 39.27851 ], [ 122.58473, 39.28437 ], [ 122.54656, 39.29694 ], [ 122.53663, 39.29804 ], [ 122.50506, 39.29694 ] ] ] } },
{ "type": "Feature", "properties": { }, "geometry": { "type": "Polygon", "coordinates": [ [ [ 122.7186, 39.24189 ], [ 122.66212, 39.23273 ], [ 122.636, 39.23428 ], [ 122.636, 39.22801 ], [ 122.6836, 39.22431 ], [ 122.69752, 39.22126 ], [ 122.6937, 39.21377 ], [ 122.69256, 39.20767 ], [ 122.69215, 39.2014 ], [ 122.69068, 39.1933 ], [ 122.7256, 39.21003 ], [ 122.73951, 39.22224 ], [ 122.74195, 39.23607 ], [ 122.7186, 39.24189 ] ] ] } },
{ "type": "Feature", "properties": { }, "geometry": { "type": "Polygon", "coordinates": [ [ [ 122.79338, 39.23968 ], [ 122.77733, 39.23107 ], [ 122.77899, 39.22591 ], [ 122.7895, 39.22634 ], [ 122.80832, 39.23237 ], [ 122.80389, 39.2371 ], [ 122.79338, 39.23968 ] ] ] } },
{ "type": "Feature", "properties": { }, "geometry": { "type": "Polygon", "coordinates": [ [ [ 122.98792, 39.26714 ], [ 122.96717, 39.26563 ], [ 122.96578, 39.25853 ], [ 122.97658, 39.25423 ], [ 122.99373, 39.25703 ], [ 122.99816, 39.26456 ], [ 122.98792, 39.26714 ] ] ] } },
{ "type": "Feature", "properties": { }, "geometry": { "type": "Polygon", "coordinates": [ [ [ 122.46733, 39.27218 ], [ 122.45211, 39.27799 ], [ 122.44298, 39.2739 ], [ 122.44879, 39.26702 ], [ 122.45875, 39.26573 ], [ 122.46733, 39.27218 ] ] ] } },
{ "type": "Feature", "properties": { }, "geometry": { "type": "Polygon", "coordinates": [ [ [ 122.4629, 39.24249 ], [ 122.46097, 39.23517 ], [ 122.46207, 39.22828 ], [ 122.47785, 39.23775 ], [ 122.47065, 39.2412 ], [ 122.4629, 39.24249 ] ] ] } },
{ "type": "Feature", "properties": { }, "geometry": { "type": "Polygon", "coordinates": [ [ [ 122.56806, 39.23603 ], [ 122.51742, 39.22958 ], [ 122.52683, 39.22355 ], [ 122.5426, 39.22398 ], [ 122.55173, 39.2158 ], [ 122.56972, 39.22549 ], [ 122.57277, 39.2341 ], [ 122.56806, 39.23603 ] ] ] } },
{ "type": "Feature", "properties": { }, "geometry": { "type": "Polygon", "coordinates": [ [ [ 122.60269, 39.21269 ], [ 122.59771, 39.19288 ], [ 122.61431, 39.19633 ], [ 122.61487, 39.2114 ], [ 122.60933, 39.21829 ], [ 122.60269, 39.21269 ] ] ] } },
{ "type": "Feature", "properties": { }, "geometry": { "type": "Polygon", "coordinates": [ [ [ 123.18067, 39.09195 ], [ 123.17628, 39.08999 ], [ 123.16814, 39.08393 ], [ 123.14357, 39.08088 ], [ 123.14332, 39.07583 ], [ 123.15089, 39.07343 ], [ 123.15919, 39.07168 ], [ 123.16472, 39.06639 ], [ 123.16489, 39.06049 ], [ 123.15309, 39.06232 ], [ 123.14812, 39.05634 ], [ 123.14519, 39.04328 ], [ 123.14991, 39.03657 ], [ 123.16066, 39.02924 ], [ 123.17254, 39.03368 ], [ 123.18523, 39.0423 ], [ 123.19557, 39.05207 ], [ 123.19581, 39.06533 ], [ 123.18483, 39.08613 ], [ 123.18067, 39.09195 ] ] ] } },
{ "type": "Feature", "properties": { }, "geometry": { "type": "Polygon", "coordinates": [ [ [ 122.7391, 39.0245 ], [ 122.71972, 39.02191 ], [ 122.70644, 39.03314 ], [ 122.70146, 39.02407 ], [ 122.70976, 39.01803 ], [ 122.70755, 39.01155 ], [ 122.74131, 38.99903 ], [ 122.75459, 39.01026 ], [ 122.74076, 39.01673 ], [ 122.74408, 39.02321 ], [ 122.7391, 39.0245 ] ] ] } },
{ "type": "Feature", "properties": { }, "geometry": { "type": "Polygon", "coordinates": [ [ [ 122.77507, 39.0888 ], [ 122.77064, 39.07888 ], [ 122.77784, 39.07068 ], [ 122.78725, 39.07845 ], [ 122.78559, 39.08363 ], [ 122.77507, 39.0888 ] ] ] } },
{ "type": "Feature", "properties": { }, "geometry": { "type": "Polygon", "coordinates": [ [ [ 122.80385, 39.09139 ], [ 122.81437, 39.08104 ], [ 122.8199, 39.08578 ], [ 122.80717, 39.097 ], [ 122.80385, 39.09139 ] ] ] } },
{ "type": "Feature", "properties": { }, "geometry": { "type": "Polygon", "coordinates": [ [ [ 122.84868, 39.07586 ], [ 122.852, 39.05558 ], [ 122.85754, 39.05429 ], [ 122.87193, 39.06508 ], [ 122.86584, 39.06896 ], [ 122.85422, 39.08147 ], [ 122.84868, 39.07586 ] ] ] } },
{ "type": "Feature", "properties": { }, "geometry": { "type": "Polygon", "coordinates": [ [ [ 122.82212, 39.06335 ], [ 122.81935, 39.05472 ], [ 122.80385, 39.04781 ], [ 122.81049, 39.04264 ], [ 122.83153, 39.0504 ], [ 122.82821, 39.06508 ], [ 122.82212, 39.06335 ] ] ] } },
{ "type": "Feature", "properties": { }, "geometry": { "type": "Polygon", "coordinates": [ [ [ 121.34059, 39.48135 ], [ 121.33131, 39.47578 ], [ 121.32732, 39.46845 ], [ 121.32472, 39.46076 ], [ 121.32016, 39.45401 ], [ 121.31105, 39.44794 ], [ 121.30291, 39.44522 ], [ 121.29477, 39.44335 ], [ 121.26588, 39.43358 ], [ 121.26173, 39.4278 ], [ 121.25864, 39.41242 ], [ 121.25758, 39.39964 ], [ 121.25945, 39.39151 ], [ 121.26441, 39.38691 ], [ 121.27296, 39.38508 ], [ 121.29615, 39.39142 ], [ 121.31332, 39.40843 ], [ 121.32732, 39.42764 ], [ 121.34059, 39.44033 ], [ 121.3519, 39.44428 ], [ 121.36427, 39.44546 ], [ 121.37525, 39.44237 ], [ 121.3816, 39.43354 ], [ 121.37965, 39.42487 ], [ 121.37176, 39.41755 ], [ 121.35426, 39.4062 ], [ 121.33611, 39.38736 ], [ 121.33692, 39.37739 ], [ 121.3532, 39.3732 ], [ 121.40349, 39.37059 ], [ 121.42172, 39.37368 ], [ 121.4336, 39.38581 ], [ 121.43605, 39.40982 ], [ 121.43556, 39.41621 ], [ 121.43198, 39.42426 ], [ 121.42555, 39.43012 ], [ 121.41627, 39.43354 ], [ 121.41627, 39.44033 ], [ 121.44313, 39.44115 ], [ 121.45045, 39.45026 ], [ 121.44239, 39.46288 ], [ 121.42254, 39.47451 ], [ 121.41326, 39.47651 ], [ 121.38844, 39.47451 ], [ 121.35255, 39.48241 ], [ 121.34059, 39.48135 ] ] ] } },
{ "type": "Feature", "properties": { }, "geometry": { "type": "Polygon", "coordinates": [ [ [ 121.57457, 39.31694 ], [ 121.55465, 39.32124 ], [ 121.55243, 39.30834 ], [ 121.56461, 39.30662 ], [ 121.57457, 39.31694 ] ] ] } },
{ "type": "Feature", "properties": { }, "geometry": { "type": "Polygon", "coordinates": [ [ [ 121.51148, 39.20765 ], [ 121.49487, 39.20248 ], [ 121.49709, 39.18956 ], [ 121.50815, 39.19559 ], [ 121.51148, 39.20765 ] ] ] } },
{ "type": "Feature", "properties": { }, "geometry": { "type": "Polygon", "coordinates": [ [ [ 121.4827, 39.19129 ], [ 121.4672, 39.20162 ], [ 121.46056, 39.19645 ], [ 121.4827, 39.17922 ], [ 121.48602, 39.18267 ], [ 121.4827, 39.19129 ] ] ] } }
]
}
