{"type":"FeatureCollection","name":"northchinasettlements","features":[{"type":"Feature","properties":{"name_zh":"介休","name_en":"Jiexiu","name_alt":"Kiehsiu","name_zh_trad":"介休","note":null},"geometry":{"type":"Point","coordinates":[111.899981,37.040025]}},{"type":"Feature","properties":{"name_zh":"临清","name_en":"Linqing","name_alt":"Lintsing","name_zh_trad":"臨清","note":null},"geometry":{"type":"Point","coordinates":[115.680009,36.850398]}},{"type":"Feature","properties":{"name_zh":"邢台","name_en":"Xingtai","name_alt":"Shuntehfu","name_zh_trad":"邢臺","note":"the old prefectural name 順德府 Shuntehfu was still in common use"},"geometry":{"type":"Point","coordinates":[114.500029,37.049972]}},{"type":"Feature","properties":{"name_zh":"沂水县","name_en":"Yishui County","name_alt":"Yishui","name_zh_trad":"沂水縣","note":null},"geometry":{"type":"Point","coordinates":[118.619984,35.790437]}},{"type":"Feature","properties":{"name_zh":"莱芜","name_en":"Laiwu","name_alt":"Laiwu","name_zh_trad":"萊蕪","note":null},"geometry":{"type":"Point","coordinates":[117.660043,36.200412]}},{"type":"Feature","properties":{"name_zh":"聊城","name_en":"Liaocheng","name_alt":"Tungchang","name_zh_trad":"聊城","note":null},"geometry":{"type":"Point","coordinates":[115.970017,36.430424]}},{"type":"Feature","properties":{"name_zh":"日照","name_en":"Rizhao","name_alt":"Jihchao","name_zh_trad":"日照","note":null},"geometry":{"type":"Point","coordinates":[119.450011,35.430381]}},{"type":"Feature","properties":{"name_zh":"德州","name_en":"Dezhou","name_alt":"Dexian","name_zh_trad":"德州","note":"known as 德縣 Dexian at the time"},"geometry":{"type":"Point","coordinates":[116.300022,37.450413]}},{"type":"Feature","properties":{"name_zh":"大同","name_en":"Datong","name_alt":"Tatung","name_zh_trad":"大同","note":null},"geometry":{"type":"Point","coordinates":[113.298053,40.081966]}},{"type":"Feature","properties":{"name_zh":"张家口","name_en":"Zhangjiakou","name_alt":"Kalgan","name_zh_trad":"張家口","note":null},"geometry":{"type":"Point","coordinates":[114.928031,40.831946]}},{"type":"Feature","properties":{"name_zh":"安陽","name_en":"Anyang","name_alt":"Changteh","name_zh_trad":"安陽","note":"the old prefectural name 彰德 Changteh was still in common use"},"geometry":{"type":"Point","coordinates":[114.348066,36.081926]}},{"type":"Feature","properties":{"name_zh":"開封","name_en":"Kaifeng","name_alt":"Kaifeng","name_zh_trad":"開封","note":null},"geometry":{"type":"Point","coordinates":[114.348066,34.851949]}},{"type":"Feature","properties":{"name_zh":"洛陽","name_en":"Luoyang","name_alt":"Loyang","name_zh_trad":"洛陽","note":null},"geometry":{"type":"Point","coordinates":[112.468129,34.681934]}},{"type":"Feature","properties":{"name_zh":"济宁","name_en":"Jining","name_alt":"Tsining","name_zh_trad":"濟寧","note":null},"geometry":{"type":"Point","coordinates":[116.548087,35.402355]}},{"type":"Feature","properties":{"name_zh":"潍坊","name_en":"Weifang","name_alt":"Weixian","name_zh_trad":"濰坊","note":"the city of 濰坊 Weifang dates from 1948; in 1942 this was 濰縣 Weixian"},"geometry":{"type":"Point","coordinates":[119.098164,36.722352]}},{"type":"Feature","properties":{"name_zh":"威海","name_en":"Weihai","name_alt":"Weihaiwei","name_zh_trad":"威海","note":null},"geometry":{"type":"Point","coordinates":[122.099978,37.499971]}},{"type":"Feature","properties":{"name_zh":"烟台","name_en":"Yantai","name_alt":"Chefoo","name_zh_trad":"煙臺","note":null},"geometry":{"type":"Point","coordinates":[121.398075,37.532354]}},{"type":"Feature","properties":{"name_zh":"徐州","name_en":"Xuzhou","name_alt":"Suchow","name_zh_trad":"徐州","note":null},"geometry":{"type":"Point","coordinates":[117.178074,34.281958]}},{"type":"Feature","properties":{"name_zh":"石家庄","name_en":"Shijiazhuang","name_alt":"Shihmen","name_zh_trad":"石家莊","note":"renamed 石門市 (Shihmen) in 1941 under Japanese occupation"},"geometry":{"type":"Point","coordinates":[114.478033,38.051961]}},{"type":"Feature","properties":{"name_zh":"青岛","name_en":"Qingdao","name_alt":"Tsingtao","name_zh_trad":"青島","note":null},"geometry":{"type":"Point","coordinates":[120.328063,36.091925]}},{"type":"Feature","properties":{"name_zh":"临沂","name_en":"Linyi","name_alt":"Yichow","name_zh_trad":"臨沂","note":null},"geometry":{"type":"Point","coordinates":[118.32803,35.081935]}},{"type":"Feature","properties":{"name_zh":"呼和浩特","name_en":"Hohhot","name_alt":"Kweisui","name_zh_trad":"呼和浩特","note":"capital of Mengjiang; 歸綏 Kweisui at the time"},"geometry":{"type":"Point","coordinates":[111.65805,40.821921]}},{"type":"Feature","properties":{"name_zh":"太原","name_en":"Taiyuan","name_alt":"Taiyuan","name_zh_trad":"太原","note":null},"geometry":{"type":"Point","coordinates":[112.543112,37.876958]}},{"type":"Feature","properties":{"name_zh":"郑州","name_en":"Zhengzhou","name_alt":"Chengchow","name_zh_trad":"鄭州","note":null},"geometry":{"type":"Point","coordinates":[113.663147,34.756942]}},{"type":"Feature","properties":{"name_zh":"济南","name_en":"Jinan","name_alt":"Tsinan","name_zh_trad":"濟南","note":null},"geometry":{"type":"Point","coordinates":[116.993073,36.676928]}},{"type":"Feature","properties":{"name_zh":"天津","name_en":"Tianjin","name_alt":"Tientsin","name_zh_trad":"天津","note":null},"geometry":{"type":"Point","coordinates":[117.198073,39.131972]}},{"type":"Feature","properties":{"name_zh":"包头","name_en":"Baotou","name_alt":"Paotow","name_zh_trad":"包頭","note":null},"geometry":{"type":"Point","coordinates":[109.820074,40.654153]}},{"type":"Feature","properties":{"name_zh":"北京","name_en":"Beijing","name_alt":"Peking","name_zh_trad":"北京","note":"北平 Peiping under the Nationalists; renamed 北京 by the occupation regime"},"geometry":{"type":"Point","coordinates":[116.38634,39.930838]}}]}